ISS OBJECT XW           
1 66910U 98067XW  26054.22387280  .00120760  00000+0  12066-2 0  9993
2 66910  51.6247 139.0514 0004022  14.6874 345.4237 15.64709424 12913
ISS OBJECT XX           
1 66911U 98067XX  26054.27464413  .00190629  00000+0  15894-2 0  9996
2 66911  51.6227 137.8839 0006093   7.7298 352.3792 15.68926760 12923
ISS OBJECT XY           
1 66912U 98067XY  26054.25288779  .00086581  00000+0  10057-2 0  9991
2 66912  51.6268 140.0062 0002001  20.1544 339.9528 15.61009591 12892
ISS OBJECT XZ           
1 67683U 98067XZ  26054.61890953  .00039458  00000+0  67941-3 0  9996
2 67683  51.6312 141.6993 0009869 138.9197 221.2537 15.50631727  2600
GXIBA-1                 
1 67684U 98067YA  26054.60896004  .00072287  00000+0  11717-2 0  9995
2 67684  51.6305 141.6332 0011445 131.0139 229.1842 15.52042398  2601
CORAL                   
1 67685U 98067YB  26054.55267606  .00045222  00000+0  77015-3 0  9993
2 67685  51.6307 142.0067 0011864 135.3250 224.8697 15.50855227  2599
ISS OBJECT YC           
1 67686U 98067YC  26054.22865737  .00054606  00000+0  92039-3 0  9996
2 67686  51.6314 143.5941 0007702 104.5865 255.5979 15.51108116  2549
LEOPARD                 
1 67687U 98067YD  26054.61786199  .00039893  00000+0  68411-3 0  9992
2 67687  51.6312 141.6931 0007777 108.6157 251.5677 15.50760616  2524
ISS OBJECT YE           
1 67688U 98067YE  26053.26289915  .00047740  00000+0  81295-3 0  9992
2 67688  51.6324 148.3958 0007695 103.3001 256.8847 15.50878079  2317
CREW DRAGON 12          
1 67796U 26031A   26054.57263882  .00013930  00000+0  26725-3 0  9995
2 67796  51.6320 142.1393 0008447 125.7797 234.3978 15.48241655554111
