CCSDS_OMM_VERS = 2.0
CREATION_DATE  = 
ORIGINATOR     = 

OBJECT_NAME    = ISS OBJECT XW
OBJECT_ID      = 1998-067XW
CENTER_NAME    = EARTH
REF_FRAME      = TEME
TIME_SYSTEM    = UTC
MEAN_ELEMENT_THEORY = SGP/SGP4

EPOCH          = 2026-02-23T05:22:22.609920
MEAN_MOTION    = 15.64709424
ECCENTRICITY   = .0004022
INCLINATION    = 51.6247
RA_OF_ASC_NODE = 139.0514
ARG_OF_PERICENTER = 14.6874
MEAN_ANOMALY   = 345.4237

EPHEMERIS_TYPE = 0
CLASSIFICATION_TYPE = U
NORAD_CAT_ID   = 66910
ELEMENT_SET_NO = 999
REV_AT_EPOCH   = 1291
BSTAR          = .12066E-2
MEAN_MOTION_DOT = .12076E-2
MEAN_MOTION_DDOT = 0

CCSDS_OMM_VERS = 2.0
CREATION_DATE  = 
ORIGINATOR     = 

OBJECT_NAME    = ISS OBJECT XX
OBJECT_ID      = 1998-067XX
CENTER_NAME    = EARTH
REF_FRAME      = TEME
TIME_SYSTEM    = UTC
MEAN_ELEMENT_THEORY = SGP/SGP4

EPOCH          = 2026-02-23T06:35:29.252832
MEAN_MOTION    = 15.68926760
ECCENTRICITY   = .0006093
INCLINATION    = 51.6227
RA_OF_ASC_NODE = 137.8839
ARG_OF_PERICENTER = 7.7298
MEAN_ANOMALY   = 352.3792

EPHEMERIS_TYPE = 0
CLASSIFICATION_TYPE = U
NORAD_CAT_ID   = 66911
ELEMENT_SET_NO = 999
REV_AT_EPOCH   = 1292
BSTAR          = .15894E-2
MEAN_MOTION_DOT = .190629E-2
MEAN_MOTION_DDOT = 0

CCSDS_OMM_VERS = 2.0
CREATION_DATE  = 
ORIGINATOR     = 

OBJECT_NAME    = ISS OBJECT XY
OBJECT_ID      = 1998-067XY
CENTER_NAME    = EARTH
REF_FRAME      = TEME
TIME_SYSTEM    = UTC
MEAN_ELEMENT_THEORY = SGP/SGP4

EPOCH          = 2026-02-23T06:04:09.505056
MEAN_MOTION    = 15.61009591
ECCENTRICITY   = .0002001
INCLINATION    = 51.6268
RA_OF_ASC_NODE = 140.0062
ARG_OF_PERICENTER = 20.1544
MEAN_ANOMALY   = 339.9528

EPHEMERIS_TYPE = 0
CLASSIFICATION_TYPE = U
NORAD_CAT_ID   = 66912
ELEMENT_SET_NO = 999
REV_AT_EPOCH   = 1289
BSTAR          = .10057E-2
MEAN_MOTION_DOT = .86581E-3
MEAN_MOTION_DDOT = 0

CCSDS_OMM_VERS = 2.0
CREATION_DATE  = 
ORIGINATOR     = 

OBJECT_NAME    = ISS OBJECT XZ
OBJECT_ID      = 1998-067XZ
CENTER_NAME    = EARTH
REF_FRAME      = TEME
TIME_SYSTEM    = UTC
MEAN_ELEMENT_THEORY = SGP/SGP4

EPOCH          = 2026-02-23T14:51:13.783392
MEAN_MOTION    = 15.50631727
ECCENTRICITY   = .00098696
INCLINATION    = 51.6312
RA_OF_ASC_NODE = 141.6993
ARG_OF_PERICENTER = 138.9197
MEAN_ANOMALY   = 221.2537

EPHEMERIS_TYPE = 0
CLASSIFICATION_TYPE = U
NORAD_CAT_ID   = 67683
ELEMENT_SET_NO = 999
REV_AT_EPOCH   = 260
BSTAR          = .67940508E-3
MEAN_MOTION_DOT = .39458E-3
MEAN_MOTION_DDOT = 0

CCSDS_OMM_VERS = 2.0
CREATION_DATE  = 
ORIGINATOR     = 

OBJECT_NAME    = GXIBA-1
OBJECT_ID      = 1998-067YA
CENTER_NAME    = EARTH
REF_FRAME      = TEME
TIME_SYSTEM    = UTC
MEAN_ELEMENT_THEORY = SGP/SGP4

EPOCH          = 2026-02-23T14:36:54.147456
MEAN_MOTION    = 15.52042398
ECCENTRICITY   = .00114454
INCLINATION    = 51.6305
RA_OF_ASC_NODE = 141.6332
ARG_OF_PERICENTER = 131.0139
MEAN_ANOMALY   = 229.1842

EPHEMERIS_TYPE = 0
CLASSIFICATION_TYPE = U
NORAD_CAT_ID   = 67684
ELEMENT_SET_NO = 999
REV_AT_EPOCH   = 260
BSTAR          = .11716777E-2
MEAN_MOTION_DOT = .72287E-3
MEAN_MOTION_DDOT = 0

CCSDS_OMM_VERS = 2.0
CREATION_DATE  = 
ORIGINATOR     = 

OBJECT_NAME    = CORAL
OBJECT_ID      = 1998-067YB
CENTER_NAME    = EARTH
REF_FRAME      = TEME
TIME_SYSTEM    = UTC
MEAN_ELEMENT_THEORY = SGP/SGP4

EPOCH          = 2026-02-23T13:15:51.211584
MEAN_MOTION    = 15.50855227
ECCENTRICITY   = .0011864
INCLINATION    = 51.6307
RA_OF_ASC_NODE = 142.0067
ARG_OF_PERICENTER = 135.3250
MEAN_ANOMALY   = 224.8697

EPHEMERIS_TYPE = 0
CLASSIFICATION_TYPE = U
NORAD_CAT_ID   = 67685
ELEMENT_SET_NO = 999
REV_AT_EPOCH   = 259
BSTAR          = .77014587E-3
MEAN_MOTION_DOT = .45222E-3
MEAN_MOTION_DDOT = 0

CCSDS_OMM_VERS = 2.0
CREATION_DATE  = 
ORIGINATOR     = 

OBJECT_NAME    = ISS OBJECT YC
OBJECT_ID      = 1998-067YC
CENTER_NAME    = EARTH
REF_FRAME      = TEME
TIME_SYSTEM    = UTC
MEAN_ELEMENT_THEORY = SGP/SGP4

EPOCH          = 2026-02-23T05:29:15.996768
MEAN_MOTION    = 15.51108116
ECCENTRICITY   = .0007702
INCLINATION    = 51.6314
RA_OF_ASC_NODE = 143.5941
ARG_OF_PERICENTER = 104.5865
MEAN_ANOMALY   = 255.5979

EPHEMERIS_TYPE = 0
CLASSIFICATION_TYPE = U
NORAD_CAT_ID   = 67686
ELEMENT_SET_NO = 999
REV_AT_EPOCH   = 254
BSTAR          = .92039E-3
MEAN_MOTION_DOT = .54606E-3
MEAN_MOTION_DDOT = 0

CCSDS_OMM_VERS = 2.0
CREATION_DATE  = 
ORIGINATOR     = 

OBJECT_NAME    = LEOPARD
OBJECT_ID      = 1998-067YD
CENTER_NAME    = EARTH
REF_FRAME      = TEME
TIME_SYSTEM    = UTC
MEAN_ELEMENT_THEORY = SGP/SGP4

EPOCH          = 2026-02-23T14:49:43.275936
MEAN_MOTION    = 15.50760616
ECCENTRICITY   = .00077778
INCLINATION    = 51.6312
RA_OF_ASC_NODE = 141.6931
ARG_OF_PERICENTER = 108.6157
MEAN_ANOMALY   = 251.5677

EPHEMERIS_TYPE = 0
CLASSIFICATION_TYPE = U
NORAD_CAT_ID   = 67687
ELEMENT_SET_NO = 999
REV_AT_EPOCH   = 252
BSTAR          = .68410958E-3
MEAN_MOTION_DOT = .39893E-3
MEAN_MOTION_DDOT = 0

CCSDS_OMM_VERS = 2.0
CREATION_DATE  = 
ORIGINATOR     = 

OBJECT_NAME    = ISS OBJECT YE
OBJECT_ID      = 1998-067YE
CENTER_NAME    = EARTH
REF_FRAME      = TEME
TIME_SYSTEM    = UTC
MEAN_ELEMENT_THEORY = SGP/SGP4

EPOCH          = 2026-02-22T06:18:34.486560
MEAN_MOTION    = 15.50878079
ECCENTRICITY   = .00076954
INCLINATION    = 51.6324
RA_OF_ASC_NODE = 148.3958
ARG_OF_PERICENTER = 103.3001
MEAN_ANOMALY   = 256.8847

EPHEMERIS_TYPE = 0
CLASSIFICATION_TYPE = U
NORAD_CAT_ID   = 67688
ELEMENT_SET_NO = 999
REV_AT_EPOCH   = 231
BSTAR          = .81294922E-3
MEAN_MOTION_DOT = .4774E-3
MEAN_MOTION_DDOT = 0

CCSDS_OMM_VERS = 2.0
CREATION_DATE  = 
ORIGINATOR     = 

OBJECT_NAME    = CREW DRAGON 12
OBJECT_ID      = 2026-031A
CENTER_NAME    = EARTH
REF_FRAME      = TEME
TIME_SYSTEM    = UTC
MEAN_ELEMENT_THEORY = SGP/SGP4

EPOCH          = 2026-02-23T13:44:35.994048
MEAN_MOTION    = 15.48241655
ECCENTRICITY   = .00084472
INCLINATION    = 51.6320
RA_OF_ASC_NODE = 142.1393
ARG_OF_PERICENTER = 125.7797
MEAN_ANOMALY   = 234.3978

EPHEMERIS_TYPE = 0
CLASSIFICATION_TYPE = U
NORAD_CAT_ID   = 67796
ELEMENT_SET_NO = 999
REV_AT_EPOCH   = 55411
BSTAR          = .26725164E-3
MEAN_MOTION_DOT = .1393E-3
MEAN_MOTION_DDOT = 0

